IRIDIUM 126             
1 42809U 17039G   25347.14577375  .00000312  00000+0  10449-3 0  9999
2 42809  86.3968  71.4163 0001903  99.0758 261.0653 14.34218591443280
IRIDIUM 124             
1 42810U 17039H   25347.31507259  .00000597  00000+0  17151-3 0  9996
2 42810  86.4494   8.0667 0002283  97.1607 262.9853 14.43278306448306
IRIDIUM 128             
1 42811U 17039J   25347.20628155  .00000429  00000+0  14628-3 0  9994
2 42811  86.3964 102.9250 0002316  98.5886 261.5573 14.34217337443329
IRIDIUM 121             
1 42812U 17039K   25347.30434027 -.00000150  00000+0 -60749-4 0  9998
2 42812  86.3964  71.3763 0002219  95.1676 264.9773 14.34217127443180
IRIDIUM 133             
1 42955U 17061A   25347.30777450  .00000500  00000+0  17162-3 0  9998
2 42955  86.3967 102.9955 0002081  97.5853 262.5579 14.34217566428138
IRIDIUM 100             
1 42956U 17061B   25347.30141529  .00000104  00000+0  30211-4 0  9992
2 42956  86.3962 102.9210 0001966  97.6091 262.5328 14.34216550428138
IRIDIUM 122             
1 42957U 17061C   25347.26970619  .00000144  00000+0  44453-4 0  9995
2 42957  86.3967 102.9344 0001922  98.8137 261.3276 14.34218145428139
IRIDIUM 129             
1 42958U 17061D   25347.29507590  .00000440  00000+0  15017-3 0  9995
2 42958  86.3964 102.9884 0001804  86.7853 273.3549 14.34219191428156
